PROGRESS-MS 32          
1 65586U 25204A   25334.54411181  .00007982  00000+0  15180-3 0  9998
2 65586  51.6312 202.8529 0003690 187.0517 173.0420 15.49206888   272
CYGNUS NG-23            
1 65616U 25208A   25334.54411181  .00007982  00000+0  15180-3 0  9996
2 65616  51.6312 202.8529 0003690 187.0517 173.0420 15.49206888   221
DRAGONFLY               
1 65729U 98067XH  25334.06728159  .00136962  00000+0  12301-2 0  9999
2 65729  51.6265 200.4173 0006450 201.2290 158.8439 15.67290907 11178
1998-067XJ              
1 65730U 98067XJ  25334.78087972  .02083121  36478-2  26017-2 0  9991
2 65730  51.6135 191.6004 0011096 229.1502 130.8550 16.07771346 11357
1998-067XK              
1 65731U 98067XK  25334.85196869  .00081042  00000+0  87111-3 0  9996
2 65731  51.6292 197.4168 0005946 178.9897 181.1110 15.63022394 11288
RSP-03                  
1 65732U 98067XL  25334.74792252  .00100324  00000+0  98892-3 0  9996
2 65732  51.6285 197.4651 0006767 181.4388 178.6589 15.65119481 11281
GHS-01                  
1 65733U 98067XM  25334.80164420  .00153923  00000+0  12670-2 0  9996
2 65733  51.6284 196.3266 0006886 204.1704 155.8970 15.69357047 11308
YOTSUBA-KULOVER         
1 65941U 98067XN  25333.37370436  .00058681  00000+0  79035-3 0  9998
2 65941  51.6289 207.0418 0002372 147.8158 212.2979 15.57263891  7778
BOTAN                   
1 65942U 98067XP  25334.36475178  .00096969  00000+0  11760-2 0  9999
2 65942  51.6296 201.6606 0004564 157.9332 202.1859 15.59824542  7938
E-KAGAKU-1              
1 65943U 98067XQ  25334.01519658  .00065299  00000+0  87589-3 0  9999
2 65943  51.6305 203.8267 0003783 135.1166 225.0132 15.57324386  7872
HRC MONOBLOCK CAMERA    
1 66052U 98067XR  25334.36473947  .00036812  00000+0  58423-3 0  9993
2 66052  51.6305 203.1547 0004569 134.7899 225.3463 15.52986760  6918
HTV-X1                  
1 66174U 25241A   25334.54411181  .00007982  00000+0  15180-3 0  9993
2 66174  51.6312 202.8529 0003690 187.0517 173.0420 15.49206888   513
